1 T0342U          26051.96939689  .00004315  00000-0  18857-2 0  9996
2 T0342  98.6829 322.1091 0100967  77.2486 283.9954 14.21609927232567
1 T0344U          26055.11326336  .00000341  00000-0  10806-2 0  9999
2 T0344 105.8378 196.3958 0262595 347.2986  12.1570 13.06592167211677
1 T0349U          26052.71993901  .00000219  00000-0  50608-3 0  9994
2 T0349  82.5467 209.2246 0023485 350.9812   9.0887 13.21077937190580
1 T0365U          26054.29169687  .00005242  00000-0  31444-2 0  9990
2 T0365  62.1325  99.1831 7486307  48.8694 354.9805  2.00846345 18825
1 T0378U          26053.95913700  .00000921  00000-0  14117-2 0  9996
2 T0378  82.5458 286.4003 0421172  72.3035 292.3597 13.20245421150997
1 T0408U          26055.62320175  .00000172  00000-0  95806-4 0  9998
2 T0408  89.1848 300.9735 0124468 221.1953 137.9785 14.03202848 29853
1 T0425U          26055.50169642  .00010235  00000-0  15867-2 0  9992
2 T0425  88.4801 246.5428 0126465 199.0619 160.5844 14.67775035 80889
1 T0429U          26055.40292312  .00002952  00000-0  10417-2 0  9999
2 T0429  87.8687 209.7044 0013515 214.0883 145.9448 14.34447486 79239
