CCSDS_OMM_VERS = 2.0
CREATION_DATE  = 
ORIGINATOR     = 

OBJECT_NAME    = UNKNOWN
OBJECT_ID      = 
CENTER_NAME    = EARTH
REF_FRAME      = TEME
TIME_SYSTEM    = UTC
MEAN_ELEMENT_THEORY = SGP/SGP4

EPOCH          = 2026-02-20T23:15:55.891296
MEAN_MOTION    = 14.21609927
ECCENTRICITY   = .01009668
INCLINATION    = 98.6829
RA_OF_ASC_NODE = 322.1091
ARG_OF_PERICENTER = 77.2486
MEAN_ANOMALY   = 283.9954

EPHEMERIS_TYPE = 0
CLASSIFICATION_TYPE = U
NORAD_CAT_ID   = 270342
ELEMENT_SET_NO = 999
REV_AT_EPOCH   = 23256
BSTAR          = .18857245E-2
MEAN_MOTION_DOT = .4315E-4
MEAN_MOTION_DDOT = 0

CCSDS_OMM_VERS = 2.0
CREATION_DATE  = 
ORIGINATOR     = 

OBJECT_NAME    = UNKNOWN
OBJECT_ID      = 
CENTER_NAME    = EARTH
REF_FRAME      = TEME
TIME_SYSTEM    = UTC
MEAN_ELEMENT_THEORY = SGP/SGP4

EPOCH          = 2026-02-24T02:43:05.954304
MEAN_MOTION    = 13.06592167
ECCENTRICITY   = .02625948
INCLINATION    = 105.8378
RA_OF_ASC_NODE = 196.3958
ARG_OF_PERICENTER = 347.2986
MEAN_ANOMALY   = 12.1570

EPHEMERIS_TYPE = 0
CLASSIFICATION_TYPE = U
NORAD_CAT_ID   = 270344
ELEMENT_SET_NO = 999
REV_AT_EPOCH   = 21167
BSTAR          = .10805974E-2
MEAN_MOTION_DOT = .341E-5
MEAN_MOTION_DDOT = 0

CCSDS_OMM_VERS = 2.0
CREATION_DATE  = 
ORIGINATOR     = 

OBJECT_NAME    = UNKNOWN
OBJECT_ID      = 
CENTER_NAME    = EARTH
REF_FRAME      = TEME
TIME_SYSTEM    = UTC
MEAN_ELEMENT_THEORY = SGP/SGP4

EPOCH          = 2026-02-21T17:16:42.730464
MEAN_MOTION    = 13.21077937
ECCENTRICITY   = .0023485
INCLINATION    = 82.5467
RA_OF_ASC_NODE = 209.2246
ARG_OF_PERICENTER = 350.9812
MEAN_ANOMALY   = 9.0887

EPHEMERIS_TYPE = 0
CLASSIFICATION_TYPE = U
NORAD_CAT_ID   = 270349
ELEMENT_SET_NO = 999
REV_AT_EPOCH   = 19058
BSTAR          = .50608422E-3
MEAN_MOTION_DOT = .219E-5
MEAN_MOTION_DDOT = 0

CCSDS_OMM_VERS = 2.0
CREATION_DATE  = 
ORIGINATOR     = 

OBJECT_NAME    = UNKNOWN
OBJECT_ID      = 
CENTER_NAME    = EARTH
REF_FRAME      = TEME
TIME_SYSTEM    = UTC
MEAN_ELEMENT_THEORY = SGP/SGP4

EPOCH          = 2026-02-23T07:00:02.609568
MEAN_MOTION    = 2.00846345
ECCENTRICITY   = .74863069
INCLINATION    = 62.1325
RA_OF_ASC_NODE = 99.1831
ARG_OF_PERICENTER = 48.8694
MEAN_ANOMALY   = 354.9805

EPHEMERIS_TYPE = 0
CLASSIFICATION_TYPE = U
NORAD_CAT_ID   = 270365
ELEMENT_SET_NO = 999
REV_AT_EPOCH   = 1882
BSTAR          = .31444436E-2
MEAN_MOTION_DOT = .5242E-4
MEAN_MOTION_DDOT = 0

CCSDS_OMM_VERS = 2.0
CREATION_DATE  = 
ORIGINATOR     = 

OBJECT_NAME    = UNKNOWN
OBJECT_ID      = 
CENTER_NAME    = EARTH
REF_FRAME      = TEME
TIME_SYSTEM    = UTC
MEAN_ELEMENT_THEORY = SGP/SGP4

EPOCH          = 2026-02-22T23:01:09.436800
MEAN_MOTION    = 13.20245421
ECCENTRICITY   = .04211725
INCLINATION    = 82.5458
RA_OF_ASC_NODE = 286.4003
ARG_OF_PERICENTER = 72.3035
MEAN_ANOMALY   = 292.3597

EPHEMERIS_TYPE = 0
CLASSIFICATION_TYPE = U
NORAD_CAT_ID   = 270378
ELEMENT_SET_NO = 999
REV_AT_EPOCH   = 15099
BSTAR          = .14117409E-2
MEAN_MOTION_DOT = .921E-5
MEAN_MOTION_DDOT = 0

CCSDS_OMM_VERS = 2.0
CREATION_DATE  = 
ORIGINATOR     = 

OBJECT_NAME    = UNKNOWN
OBJECT_ID      = 
CENTER_NAME    = EARTH
REF_FRAME      = TEME
TIME_SYSTEM    = UTC
MEAN_ELEMENT_THEORY = SGP/SGP4

EPOCH          = 2026-02-24T14:57:24.631200
MEAN_MOTION    = 14.03202848
ECCENTRICITY   = .01244678
INCLINATION    = 89.1848
RA_OF_ASC_NODE = 300.9735
ARG_OF_PERICENTER = 221.1953
MEAN_ANOMALY   = 137.9785

EPHEMERIS_TYPE = 0
CLASSIFICATION_TYPE = U
NORAD_CAT_ID   = 270408
ELEMENT_SET_NO = 999
REV_AT_EPOCH   = 2985
BSTAR          = .95806326E-4
MEAN_MOTION_DOT = .172E-5
MEAN_MOTION_DDOT = 0

CCSDS_OMM_VERS = 2.0
CREATION_DATE  = 
ORIGINATOR     = 

OBJECT_NAME    = UNKNOWN
OBJECT_ID      = 
CENTER_NAME    = EARTH
REF_FRAME      = TEME
TIME_SYSTEM    = UTC
MEAN_ELEMENT_THEORY = SGP/SGP4

EPOCH          = 2026-02-24T12:02:26.570688
MEAN_MOTION    = 14.67775035
ECCENTRICITY   = .01264646
INCLINATION    = 88.4801
RA_OF_ASC_NODE = 246.5428
ARG_OF_PERICENTER = 199.0619
MEAN_ANOMALY   = 160.5844

EPHEMERIS_TYPE = 0
CLASSIFICATION_TYPE = U
NORAD_CAT_ID   = 270425
ELEMENT_SET_NO = 999
REV_AT_EPOCH   = 8088
BSTAR          = .15866959E-2
MEAN_MOTION_DOT = .10235E-3
MEAN_MOTION_DDOT = 0

CCSDS_OMM_VERS = 2.0
CREATION_DATE  = 
ORIGINATOR     = 

OBJECT_NAME    = UNKNOWN
OBJECT_ID      = 
CENTER_NAME    = EARTH
REF_FRAME      = TEME
TIME_SYSTEM    = UTC
MEAN_ELEMENT_THEORY = SGP/SGP4

EPOCH          = 2026-02-24T09:40:12.557568
MEAN_MOTION    = 14.34447486
ECCENTRICITY   = .00135154
INCLINATION    = 87.8687
RA_OF_ASC_NODE = 209.7044
ARG_OF_PERICENTER = 214.0883
MEAN_ANOMALY   = 145.9448

EPHEMERIS_TYPE = 0
CLASSIFICATION_TYPE = U
NORAD_CAT_ID   = 270429
ELEMENT_SET_NO = 999
REV_AT_EPOCH   = 7923
BSTAR          = .10417E-2
MEAN_MOTION_DOT = .2952E-4
MEAN_MOTION_DDOT = 0

